{"type": "FeatureCollection", "features": [ {"type": "Feature", "properties": {"norad_id": 60453, "name": "LEGION 4", "group": "resource", "lat": 1.8066162009988573, "lon": -115.82535984211357, "alt_km": 520.8204236395995, "timestamp": "2025-12-08T05:48:08.705567+00:00", "meta": {"OBJECT_NAME": "LEGION 4", "OBJECT_ID": "2024-146B", "EPOCH": "2025-12-07T17:57:01.782720", "MEAN_MOTION": 15.15747454, "ECCENTRICITY": 0.00098821, "INCLINATION": 45.0389, "RA_OF_ASC_NODE": 68.6278, "ARG_OF_PERICENTER": 284.9914, "MEAN_ANOMALY": 74.9871, "EPHEMERIS_TYPE": 0, "CLASSIFICATION_TYPE": "U", "NORAD_CAT_ID": 60453, "ELEMENT_SET_NO": 999, "REV_AT_EPOCH": 7182, "BSTAR": 0.00045449653, "MEAN_MOTION_DOT": 8.569e-05, "MEAN_MOTION_DDOT": 0}, "tle": {"line1": "1 60453U 24146B   25341.74793730  .00008569  00000+0  45450-3 0  9998", "line2": "2 60453  45.0389  68.6278 0009882 284.9914  74.9871 15.15747454 71827"}}, "geometry": {"type": "Point", "coordinates": [-115.82535984211357, 1.8066162009988573]}}, {"type": "Feature", "properties": {"norad_id": 60989, "name": "SENTINEL-2C", "group": "resource", "lat": -66.51539809977555, "lon": -145.51561815346116, "alt_km": 796.9622963075162, "timestamp": "2025-12-08T05:48:08.705577+00:00", "meta": {"OBJECT_NAME": "SENTINEL-2C", "OBJECT_ID": "2024-157A", "EPOCH": "2025-12-07T21:56:00.805344", "MEAN_MOTION": 14.30814496, "ECCENTRICITY": 0.00011744, "INCLINATION": 98.5687, "RA_OF_ASC_NODE": 54.4659, "ARG_OF_PERICENTER": 98.0485, "MEAN_ANOMALY": 262.0831, "EPHEMERIS_TYPE": 0, "CLASSIFICATION_TYPE": "U", "NORAD_CAT_ID": 60989, "ELEMENT_SET_NO": 999, "REV_AT_EPOCH": 6563, "BSTAR": 0.00012451038, "MEAN_MOTION_DOT": 2.83e-06, "MEAN_MOTION_DDOT": 0}, "tle": {"line1": "1 60989U 24157A   25341.91389821  .00000283  00000+0  12451-3 0  9995", "line2": "2 60989  98.5687  54.4659 0001174  98.0485 262.0831 14.30814496 65639"}}, "geometry": {"type": "Point", "coordinates": [-145.51561815346116, -66.51539809977555]}}, {"type": "Feature", "properties": {"norad_id": 61735, "name": "IONOSFERA-M 1", "group": "resource", "lat": -72.43303326148632, "lon": -118.79789686792807, "alt_km": 823.6509365836782, "timestamp": "2025-12-08T05:48:08.705587+00:00", "meta": {"OBJECT_NAME": "IONOSFERA-M 1", "OBJECT_ID": "2024-199A", "EPOCH": "2025-12-07T21:42:49.256064", "MEAN_MOTION": 14.22712347, "ECCENTRICITY": 0.00011883, "INCLINATION": 98.7414, "RA_OF_ASC_NODE": 211.7899, "ARG_OF_PERICENTER": 28.5865, "MEAN_ANOMALY": 331.5378, "EPHEMERIS_TYPE": 0, "CLASSIFICATION_TYPE": "U", "NORAD_CAT_ID": 61735, "ELEMENT_SET_NO": 999, "REV_AT_EPOCH": 10050, "BSTAR": 8.1865768e-05, "MEAN_MOTION_DOT": 1.39e-06, "MEAN_MOTION_DDOT": 0}, "tle": {"line1": "1 61735U 24199A   25341.90473676  .00000139  00000+0  81866-4 0  9999", "line2": "2 61735  98.7414 211.7899 0001188  28.5865 331.5378 14.22712347100505"}}, "geometry": {"type": "Point", "coordinates": [-118.79789686792807, -72.43303326148632]}}, {"type": "Feature", "properties": {"norad_id": 61736, "name": "IONOSFERA-M 2", "group": "resource", "lat": 70.05035460326937, "lon": 57.1162479269767, "alt_km": 808.2814415804287, "timestamp": "2025-12-08T05:48:08.705597+00:00", "meta": {"OBJECT_NAME": "IONOSFERA-M 2", "OBJECT_ID": "2024-199B", "EPOCH": "2025-12-07T22:32:43.256256", "MEAN_MOTION": 14.22714468, "ECCENTRICITY": 0.00015285, "INCLINATION": 98.7412, "RA_OF_ASC_NODE": 211.7369, "ARG_OF_PERICENTER": 116.3921, "MEAN_ANOMALY": 243.7413, "EPHEMERIS_TYPE": 0, "CLASSIFICATION_TYPE": "U", "NORAD_CAT_ID": 61736, "ELEMENT_SET_NO": 999, "REV_AT_EPOCH": 10363, "BSTAR": 7.982525e-05, "MEAN_MOTION_DOT": 1.35e-06, "MEAN_MOTION_DDOT": 0}, "tle": {"line1": "1 61736U 24199B   25341.93938954  .00000135  00000+0  79825-4 0  9996", "line2": "2 61736  98.7412 211.7369 0001528 116.3921 243.7413 14.22714468103630"}}, "geometry": {"type": "Point", "coordinates": [57.1162479269767, 70.05035460326937]}}, {"type": "Feature", "properties": {"norad_id": 63772, "name": "BIOMASS", "group": "resource", "lat": -63.18973315583277, "lon": -176.3778500218986, "alt_km": 676.7704232150791, "timestamp": "2025-12-08T05:48:08.705607+00:00", "meta": {"OBJECT_NAME": "BIOMASS", "OBJECT_ID": "2025-090A", "EPOCH": "2025-12-07T18:38:26.290752", "MEAN_MOTION": 14.67540192, "ECCENTRICITY": 0.00012291, "INCLINATION": 98.0702, "RA_OF_ASC_NODE": 166.8585, "ARG_OF_PERICENTER": 76.0167, "MEAN_ANOMALY": 284.1174, "EPHEMERIS_TYPE": 0, "CLASSIFICATION_TYPE": "U", "NORAD_CAT_ID": 63772, "ELEMENT_SET_NO": 999, "REV_AT_EPOCH": 3261, "BSTAR": 0.00045739481, "MEAN_MOTION_DOT": 2.547e-05, "MEAN_MOTION_DDOT": 0}, "tle": {"line1": "1 63772U 25090A   25341.77669318  .00002547  00000+0  45739-3 0  9991", "line2": "2 63772  98.0702 166.8585 0001229  76.0167 284.1174 14.67540192 32611"}}, "geometry": {"type": "Point", "coordinates": [-176.3778500218986, -63.18973315583277]}}, {"type": "Feature", "properties": {"norad_id": 64694, "name": "GOSAT-GW (IBUKI GW)", "group": "resource", "lat": 34.68500309785685, "lon": 103.45145372823332, "alt_km": 666.1218231622561, "timestamp": "2025-12-08T05:48:08.705617+00:00", "meta": {"OBJECT_NAME": "GOSAT-GW (IBUKI GW)", "OBJECT_ID": "2025-141A", "EPOCH": "2025-12-07T22:35:57.915456", "MEAN_MOTION": 14.6756033, "ECCENTRICITY": 0.00014936, "INCLINATION": 98.0422, "RA_OF_ASC_NODE": 277.5417, "ARG_OF_PERICENTER": 82.5881, "MEAN_ANOMALY": 277.5493, "EPHEMERIS_TYPE": 0, "CLASSIFICATION_TYPE": "U", "NORAD_CAT_ID": 64694, "ELEMENT_SET_NO": 999, "REV_AT_EPOCH": 2379, "BSTAR": 0.00032339834, "MEAN_MOTION_DOT": 1.787e-05, "MEAN_MOTION_DDOT": 0}, "tle": {"line1": "1 64694U 25141A   25341.94164254  .00001787  00000+0  32340-3 0  9999", "line2": "2 64694  98.0422 277.5417 0001493  82.5881 277.5493 14.67560330 23791"}}, "geometry": {"type": "Point", "coordinates": [103.45145372823332, 34.68500309785685]}}, {"type": "Feature", "properties": {"norad_id": 64876, "name": "IONOSFERA-M 3", "group": "resource", "lat": 6.869132491917417, "lon": 125.27711932011036, "alt_km": 822.9438872331157, "timestamp": "2025-12-08T05:48:08.705627+00:00", "meta": {"OBJECT_NAME": "IONOSFERA-M 3", "OBJECT_ID": "2025-155A", "EPOCH": "2025-12-07T22:14:02.802912", "MEAN_MOTION": 14.21439076, "ECCENTRICITY": 0.00023375, "INCLINATION": 98.5778, "RA_OF_ASC_NODE": 303.9289, "ARG_OF_PERICENTER": 67.5445, "MEAN_ANOMALY": 292.598, "EPHEMERIS_TYPE": 0, "CLASSIFICATION_TYPE": "U", "NORAD_CAT_ID": 64876, "ELEMENT_SET_NO": 999, "REV_AT_EPOCH": 1923, "BSTAR": 8.810239e-05, "MEAN_MOTION_DOT": 1.5e-06, "MEAN_MOTION_DDOT": 0}, "tle": {"line1": "1 64876U 25155A   25341.92642133  .00000150  00000+0  88102-4 0  9992", "line2": "2 64876  98.5778 303.9289 0002337  67.5445 292.5980 14.21439076 19234"}}, "geometry": {"type": "Point", "coordinates": [125.27711932011036, 6.869132491917417]}}, {"type": "Feature", "properties": {"norad_id": 64877, "name": "IONOSFERA-M 4", "group": "resource", "lat": -6.513253292173844, "lon": -54.857758423839, "alt_km": 823.8766904040376, "timestamp": "2025-12-08T05:48:08.705637+00:00", "meta": {"OBJECT_NAME": "IONOSFERA-M 4", "OBJECT_ID": "2025-155B", "EPOCH": "2025-12-07T21:23:11.036544", "MEAN_MOTION": 14.2144013, "ECCENTRICITY": 0.00016911, "INCLINATION": 98.5776, "RA_OF_ASC_NODE": 303.8142, "ARG_OF_PERICENTER": 68.3704, "MEAN_ANOMALY": 291.7654, "EPHEMERIS_TYPE": 0, "CLASSIFICATION_TYPE": "U", "NORAD_CAT_ID": 64877, "ELEMENT_SET_NO": 999, "REV_AT_EPOCH": 1922, "BSTAR": 8.468134e-05, "MEAN_MOTION_DOT": 1.42e-06, "MEAN_MOTION_DDOT": 0}, "tle": {"line1": "1 64877U 25155B   25341.89109996  .00000142  00000+0  84681-4 0  9993", "line2": "2 64877  98.5776 303.8142 0001691  68.3704 291.7654 14.21440130 19220"}}, "geometry": {"type": "Point", "coordinates": [-54.857758423839, -6.513253292173844]}}, {"type": "Feature", "properties": {"norad_id": 64899, "name": "MICROCARB", "group": "resource", "lat": 49.0278848497813, "lon": 48.336210672556035, "alt_km": 653.9145737169956, "timestamp": "2025-12-08T05:48:08.705648+00:00", "meta": {"OBJECT_NAME": "MICROCARB", "OBJECT_ID": "2025-156A", "EPOCH": "2025-12-07T19:47:19.574304", "MEAN_MOTION": 14.72045183, "ECCENTRICITY": 0.00168241, "INCLINATION": 98.0028, "RA_OF_ASC_NODE": 57.2486, "ARG_OF_PERICENTER": 159.8799, "MEAN_ANOMALY": 200.3075, "EPHEMERIS_TYPE": 0, "CLASSIFICATION_TYPE": "U", "NORAD_CAT_ID": 64899, "ELEMENT_SET_NO": 999, "REV_AT_EPOCH": 1981, "BSTAR": 0.00023240686, "MEAN_MOTION_DOT": 1.413e-05, "MEAN_MOTION_DDOT": 0}, "tle": {"line1": "1 64899U 25156A   25341.82453211  .00001413  00000+0  23241-3 0  9999", "line2": "2 64899  98.0028  57.2486 0016824 159.8799 200.3075 14.72045183 19817"}}, "geometry": {"type": "Point", "coordinates": [48.336210672556035, 49.0278848497813]}}, {"type": "Feature", "properties": {"norad_id": 64900, "name": "CO3D 3", "group": "resource", "lat": 32.702278200763274, "lon": 53.86462209425026, "alt_km": 503.1127069378599, "timestamp": "2025-12-08T05:48:08.705658+00:00", "meta": {"OBJECT_NAME": "CO3D 3", "OBJECT_ID": "2025-156B", "EPOCH": "2025-12-07T21:45:32.226336", "MEAN_MOTION": 15.20205086, "ECCENTRICITY": 0.00013103, "INCLINATION": 97.4343, "RA_OF_ASC_NODE": 58.3434, "ARG_OF_PERICENTER": 110.9185, "MEAN_ANOMALY": 249.219, "EPHEMERIS_TYPE": 0, "CLASSIFICATION_TYPE": "U", "NORAD_CAT_ID": 64900, "ELEMENT_SET_NO": 999, "REV_AT_EPOCH": 2047, "BSTAR": 0.00036961345, "MEAN_MOTION_DOT": 7.943e-05, "MEAN_MOTION_DDOT": 0}, "tle": {"line1": "1 64900U 25156B   25341.90662299  .00007943  00000+0  36961-3 0  9996", "line2": "2 64900  97.4343  58.3434 0001310 110.9185 249.2190 15.20205086 20477"}}, "geometry": {"type": "Point", "coordinates": [53.86462209425026, 32.702278200763274]}}]}